[{"OBJECT_NAME":"STARLINK-35876","OBJECT_ID":"2025-303T","EPOCH":"2026-03-09T03:36:28.703808","MEAN_MOTION":15.27561943,"ECCENTRICITY":0.00017806,"INCLINATION":43.0004,"RA_OF_ASC_NODE":313.675,"ARG_OF_PERICENTER":280.7112,"MEAN_ANOMALY":79.3539,"EPHEMERIS_TYPE":0,"CLASSIFICATION_TYPE":"U","NORAD_CAT_ID":67180,"ELEMENT_SET_NO":999,"REV_AT_EPOCH":1265,"BSTAR":0.00090905271,"MEAN_MOTION_DOT":0.00024824,"MEAN_MOTION_DDOT":0},{"OBJECT_NAME":"CZ-6A DEB","OBJECT_ID":"2022-151ADD","EPOCH":"2026-03-09T18:20:47.462208","MEAN_MOTION":15.20298953,"ECCENTRICITY":0.00285544,"INCLINATION":98.6309,"RA_OF_ASC_NODE":152.6578,"ARG_OF_PERICENTER":173.2603,"MEAN_ANOMALY":186.9019,"EPHEMERIS_TYPE":0,"CLASSIFICATION_TYPE":"U","NORAD_CAT_ID":56285,"ELEMENT_SET_NO":999,"REV_AT_EPOCH":17182,"BSTAR":0.0066325049,"MEAN_MOTION_DOT":0.00148374,"MEAN_MOTION_DDOT":0}]
